OBJECT_NAME,OBJECT_ID,EPOCH,MEAN_MOTION,ECCENTRICITY,INCLINATION,RA_OF_ASC_NODE,ARG_OF_PERICENTER,MEAN_ANOMALY,EPHEMERIS_TYPE,CLASSIFICATION_TYPE,NORAD_CAT_ID,ELEMENT_SET_NO,REV_AT_EPOCH,BSTAR,MEAN_MOTION_DOT,MEAN_MOTION_DDOT
GAOFEN-1 03,2018-031B,2026-07-10T07:38:59.022816,14.76458419,.00027977,98.0506,253.6357,28.7408,331.3955,0,U,43260,999,44610,.6777269E-4,.42E-5,0
GAOFEN-1 04,2018-031D,2026-07-10T07:04:02.074080,14.76467990,.00015138,98.0518,253.8054,58.6911,301.4447,0,U,43262,999,44609,.86725207E-4,.552E-5,0
SUPERBIRD-B3,2018-033A,2026-07-10T05:15:38.694240,1.00270952,.00011568,0.0147,316.8722,186.1493,26.0456,0,U,43271,999,3029,0,-.81E-6,0
HYLAS 4,2018-033B,2026-07-10T04:53:33.228384,1.00270861,.00008171,0.0130,315.8388,194.8332,177.3455,0,U,43272,999,3029,0,-.223E-5,0
YAOGAN-31 01A,2018-034A,2026-07-10T07:50:04.451424,13.45463250,.02772645,63.3957,31.7405,7.5781,352.9305,0,U,43275,999,40521,-.16137762E-3,-.211E-5,0
YAOGAN-31 01B,2018-034B,2026-07-10T07:51:53.565984,13.45458874,.02772673,63.3959,31.7448,7.5315,352.9746,0,U,43276,999,40533,-.19441294E-3,-.236E-5,0
YAOGAN-31 01C,2018-034C,2026-07-10T07:56:00.854880,13.45445589,.02774442,63.3968,31.1047,7.2364,353.2540,0,U,43277,999,40535,-.11092763E-3,-.173E-5,0
WEINA 1B,2018-034E,2026-07-10T06:27:33.965568,13.45372458,.02771183,63.3962,32.4957,7.9361,352.5915,0,U,43279,999,40531,-.12122849E-3,-.181E-5,0
IRNSS-1I,2018-035A,2026-07-06T20:05:50.528832,1.00279237,.00180874,28.7973,73.8917,180.4002,27.0525,0,U,43286,999,3027,0,.79E-6,0
USA 283,2018-036A,2026-07-07T12:40:21.060192,1.00268378,.0000938,0.0144,201.6353,5.6408,42.3965,0,U,43339,999,2549,0,-.302E-5,0
COSMOS 2526,2018-037A,2026-07-09T14:15:43.999200,1.00247115,.00013444,0.0315,92.7031,101.5058,75.2973,0,U,43432,999,3018,0,-.334E-5,0
SENTINEL-3B,2018-039A,2026-07-09T10:06:02.564928,14.26741005,.00010167,98.6239,257.6331,120.0757,240.0524,0,U,43437,999,42729,.40006667E-4,.53E-6,0
ZHUHAI-1 OVS-02,2018-040B,2026-07-10T07:49:04.327392,15.25335867,.00045941,97.0387,207.1859,147.5690,212.5832,0,U,43440,999,45624,.20263676E-3,.5042E-4,0
ZHUHAI-1 OHS-02,2018-040C,2026-07-10T07:08:38.616288,15.26221256,.00108367,97.0367,214.1221,139.9821,220.2219,0,U,43441,999,11780,.20944123E-3,.5362E-4,0
USA 285,2018-036E,2026-07-10T05:20:29.470848,1.02114791,.00111244,7.1700,66.6710,168.4001,31.2861,0,U,43445,999,2717,0,-.201E-5,0
USA 286,2018-036F,2026-07-02T01:37:41.882304,1.02122725,.00105187,7.1482,66.7455,165.9237,352.0955,0,U,43446,999,2707,0,-.18E-5,0
APSTAR-6C,2018-041A,2026-07-09T19:25:18.772320,1.00271071,.0000499,0.0263,338.0319,315.6172,59.4350,0,U,43450,999,3003,0,-.305E-5,0
GAOFEN-5 01,2018-043A,2026-07-09T16:02:21.142464,14.60621115,.00023973,98.4586,162.7286,43.0598,317.0789,0,U,43461,999,43497,.53023303E-4,.209E-5,0
BANGABANDHUSAT-1,2018-044A,2026-07-10T07:19:43.535136,1.00272689,.00016791,0.0167,76.1046,43.6677,37.4789,0,U,43463,999,2994,0,-.352E-5,0
GRACE-FO 1,2018-047A,2026-07-10T06:05:37.150080,15.38420414,.00121072,88.9917,194.7805,35.1766,325.0286,0,U,43476,999,45334,.72351579E-4,.2779E-4,0
GRACE-FO 2,2018-047B,2026-07-10T06:06:01.683360,15.38418841,.00121111,88.9917,194.7804,35.2306,324.9748,0,U,43477,999,45334,.73053372E-4,.2806E-4,0
IRIDIUM 161,2018-047C,2026-07-09T05:11:18.598272,14.43284336,.00023534,86.4469,79.2595,78.9993,281.1472,0,U,43478,999,42831,.55733535E-4,.208E-5,0
IRIDIUM 152,2018-047D,2026-07-09T05:14:34.891296,14.34218640,.00021729,86.3944,79.1199,82.5193,277.6250,0,U,43479,999,42564,.50953102E-4,.162E-5,0
IRIDIUM 147,2018-047E,2026-07-10T04:50:14.070336,14.34216920,.00022754,86.3943,78.7142,88.4445,271.7011,0,U,43480,999,42578,.70122931E-4,.216E-5,0
IRIDIUM 110,2018-047F,2026-07-10T03:18:54.315360,14.34217351,.00022182,86.3948,78.8334,76.9125,283.2318,0,U,43481,999,42576,.52221687E-4,.166E-5,0
IRIDIUM 162,2018-047G,2026-07-10T02:40:06.655296,14.43283456,.00021871,86.4467,78.7759,84.2783,275.8667,0,U,43482,999,42843,.50126108E-4,.189E-5,0
GAOFEN-6,2018-048A,2026-07-10T07:36:05.991264,14.76378602,.00121337,98.0959,254.0071,95.3008,264.9586,0,U,43484,999,43680,.5617274E-5,-.13E-6,0
LUOJIA-1 01,2018-048B,2026-07-10T07:36:45.064800,14.87373632,.00101324,97.8096,269.1341,52.2925,307.9209,0,U,43485,999,43765,.20023615E-3,.1757E-4,0
SES-12,2018-049A,2026-07-10T07:12:36.717408,1.00272012,.00008339,0.0111,0.4773,262.5484,228.3571,0,U,43488,999,2965,0,-.259E-5,0
FENGYUN 2H,2018-050A,2026-07-10T02:00:21.834720,1.00267887,.00021958,3.0864,78.8122,128.8025,189.6973,0,U,43491,999,2966,0,-.119E-5,0
COSMOS 2527 [GLONASS-M],2018-053A,2026-07-09T03:21:36.783648,2.13102220,.00066656,65.5893,73.1758,231.8684,128.1313,0,U,43508,999,6274,0,-.24E-6,0
PAKTES 1A,2018-056A,2026-07-10T07:10:28.657056,14.99191790,.00201515,98.1287,348.7717,34.7234,325.5299,0,U,43529,999,43538,.10364731E-3,.1201E-4,0
PRSS-1,2018-056B,2026-07-10T06:44:22.640640,14.82024907,.00013177,97.7810,258.5105,84.4037,275.7327,0,U,43530,999,43185,.10220501E-3,.76E-5,0
BEIDOU-2 IGSO-7,2018-057A,2026-07-01T21:23:21.693984,1.00246939,.01049468,55.1981,162.9292,237.8611,308.6338,0,U,43539,999,2927,0,-.33E-6,0
TELSTAR 19V,2018-059A,2026-07-10T04:45:04.041216,1.00270133,.00028574,0.0382,177.1918,312.9485,166.2517,0,U,43562,999,2937,0,-.269E-5,0
GSAT0221 (GALILEO 25),2018-060A,2026-07-09T22:36:05.857344,1.70476012,.0002608,57.1621,341.1668,288.2741,71.6944,0,U,43564,999,4955,0,-.79E-6,0
GSAT0222 (GALILEO 26),2018-060B,2026-07-08T23:43:05.546496,1.70475769,.00026268,57.1651,341.1962,236.6696,123.3045,0,U,43565,999,4958,0,-.75E-6,0
GSAT0219 (GALILEO 23),2018-060C,2026-07-09T05:01:07.936896,1.70476041,.00017911,57.1645,341.1918,303.0651,56.9164,0,U,43566,999,4956,0,-.76E-6,0
GSAT0220 (GALILEO 24),2018-060D,2026-07-10T00:24:02.810880,1.70475701,.00021102,57.1639,341.1705,293.5002,66.4744,0,U,43567,999,4956,0,-.79E-6,0
IRIDIUM 160,2018-061A,2026-07-10T00:20:26.459232,14.34217652,.00022527,86.3937,47.2497,86.2180,273.9273,0,U,43569,999,41664,.32630468E-4,.111E-5,0
IRIDIUM 166,2018-061B,2026-07-09T13:13:42.367584,14.34217868,.00022568,86.3942,47.3936,89.7499,270.3955,0,U,43570,999,41660,.343576E-6,.21E-6,0
IRIDIUM 158,2018-061C,2026-07-10T00:11:18.435264,14.34216771,.00020042,86.3938,47.2127,86.2707,273.8718,0,U,43571,999,41663,-.36731752E-4,-.83E-6,0
IRIDIUM 165,2018-061D,2026-07-09T13:04:34.349664,14.34216760,.00022568,86.3944,47.4530,90.6727,269.4727,0,U,43572,999,41659,.26099215E-4,.93E-6,0
IRIDIUM 155,2018-061E,2026-07-10T01:33:30.352896,14.34216576,.00019959,86.3934,47.1028,87.9666,272.1759,0,U,43573,999,41663,-.21530544E-4,-.41E-6,0
IRIDIUM 154,2018-061F,2026-07-10T01:06:06.368256,14.34217301,.00023133,86.3945,47.2461,90.2087,269.9374,0,U,43574,999,41668,.74938308E-4,.23E-5,0
IRIDIUM 163,2018-061G,2026-07-10T00:38:42.377568,14.34217315,.00021782,86.3939,47.1685,85.1435,275.0009,0,U,43575,999,41665,.5616075E-4,.177E-5,0
IRIDIUM 156,2018-061H,2026-07-10T01:42:38.426112,14.34217543,.00020578,86.3939,47.1572,90.4782,269.6649,0,U,43576,999,41665,.4126852E-4,.135E-5,0
IRIDIUM 164,2018-061J,2026-07-09T13:31:58.583136,14.34216708,.00023074,86.3941,47.4104,89.7365,270.4095,0,U,43577,999,41662,.36382169E-4,.122E-5,0
IRIDIUM 159,2018-061K,2026-07-10T07:11:26.350656,14.34217565,.00021865,86.3939,47.0388,85.2947,274.8498,0,U,43578,999,41669,.39381727E-4,.13E-5,0
BEIDOU-3 M5,2018-062A,2026-07-08T14:02:48.675840,1.86228617,.00057129,54.0866,181.5769,292.3518,67.5967,0,U,43581,999,5403,0,.121E-5,0
BEIDOU-3 M6,2018-062B,2026-07-10T01:26:00.707424,1.86227689,.0005243,54.0861,181.5158,9.9510,350.0665,0,U,43582,999,5406,0,.112E-5,0
GAOFEN-11 01,2018-063A,2026-07-10T07:56:02.381568,15.55971687,.00026495,97.1282,258.1530,220.0836,140.0224,0,U,43585,999,44394,.19745567E-3,.13625E-3,0
TELKOM 4 (MERAH PUTIH),2018-064A,2026-07-09T18:14:38.682816,1.00269125,.00016504,0.0179,55.8846,93.8853,159.5730,0,U,43587,999,2910,0,-.331E-5,0
BEIDOU-3 M12,2018-067A,2026-07-09T23:57:20.896128,1.86227772,.00079059,54.1817,180.2667,30.5943,329.4569,0,U,43602,999,5354,0,.111E-5,0
BEIDOU-3 M11,2018-067B,2026-07-10T03:11:55.832640,1.86227244,.00046186,54.1791,180.2259,13.9452,346.0721,0,U,43603,999,5357,0,.11E-5,0
HAIYANG-1C,2018-068A,2026-07-10T04:45:15.053760,14.34185282,.00114585,98.5181,263.1727,32.4865,327.7023,0,U,43609,999,41038,-.40199965E-4,-.156E-5,0
TELSTAR 18V,2018-069A,2026-07-10T06:49:38.585568,1.00269704,.00017545,0.0132,332.6810,143.6790,52.2638,0,U,43611,999,2887,0,-.283E-5,0
ICESAT-2,2018-070A,2026-07-10T06:27:44.322336,15.28295631,.00058089,92.0085,297.2163,75.8575,284.3319,0,U,43613,999,43598,.23858056E-3,.6577E-4,0
SSTL S1-4,2018-071A,2026-07-10T07:04:54.741792,14.96197599,.00020248,97.5002,61.9445,95.0705,265.0748,0,U,43618,999,42639,-.9123742E-5,-.157E-5,0
NOVASAR 1,2018-071B,2026-07-10T06:14:28.400352,14.96264137,.0001939,97.5041,62.6305,75.6853,284.4584,0,U,43619,999,42638,.72858355E-4,.768E-5,0
BEIDOU-3 M13,2018-072A,2026-07-07T22:33:50.636160,1.86231557,.0006453,56.6422,61.9754,332.0824,27.9450,0,U,43622,999,5304,0,-.45E-6,0
BEIDOU-3 M14,2018-072B,2026-07-09T22:52:56.764128,1.86231182,.0005491,56.6460,61.9028,10.8304,349.2439,0,U,43623,999,5307,0,-.46E-6,0
AZERSPACE 2 (IS-38),2018-074A,2026-07-10T05:15:53.587008,1.00272725,.00012722,0.0249,29.3091,98.0981,284.8304,0,U,43632,999,2867,0,0,0
HORIZONS-3E,2018-074B,2026-07-09T19:35:17.814624,1.00272318,.00007811,0.0363,213.3135,67.3154,109.9513,0,U,43633,999,2856,0,-.18E-6,0
CENTISPACE-1 S1,2018-075A,2026-07-10T06:33:32.232672,14.60018092,.00097201,97.8721,213.8853,54.6070,305.6037,0,U,43636,999,41392,.83763427E-4,.359E-5,0
SAOCOM 1A,2018-076A,2026-07-10T07:00:40.599648,14.82146120,.00014951,97.8894,17.7052,83.1667,276.9716,0,U,43641,999,41952,.48189068E-4,.331E-5,0
YAOGAN-32 A,2018-077A,2026-07-10T07:20:28.116672,14.63204541,.00019267,98.1473,219.5716,89.7258,270.4164,0,U,43642,999,41322,.87757452E-4,.405E-5,0
